NORAD_CAT_ID,OBJECT_NAME,OBJECT_TYPE,EPOCH,MEAN_MOTION,ECCENTRICITY,INCLINATION,RA_OF_ASC_NODE,ARG_OF_PERICENTER,MEAN_ANOMALY,BSTAR,MEAN_MOTION_DOT,MEAN_MOTION_DDOT,TLE_LINE0,TLE_LINE1,TLE_LINE2,SEMIMAJOR_AXIS,PERIOD,APOGEE,PERIGEE,DECAYED
49423.0,STARLINK-3149,PAYLOAD,2022-08-21 11:50:02,15.08807908,0.0001781999999999,53.217,287.9862,65.2104,294.9073,0.00029718,4.441e-05,0.0,0 STARLINK-3149,1 49423U 21104R   22233.49308430  .00004441  00000-0  29718-3 0  9996,2 49423  53.2170 287.9862 0001782  65.2104 294.9073 15.08807908 44020,6917.978,95.44,541.076,538.611,0.0
49423.0,STARLINK-3149,PAYLOAD,2022-08-22 03:43:53,15.08830648,0.0001681,53.2163,285.0142,53.4209,306.6937,0.00012886,1.763e-05,0.0,0 STARLINK-3149,1 49423U 21104R   22234.15548083  .00001763  00000-0  12886-3 0  9992,2 49423  53.2163 285.0142 0001681  53.4209 306.6937 15.08830648 44123,6917.909000000002,95.438,540.937,538.611,0.0
49423.0,STARLINK-3149,PAYLOAD,2022-08-22 10:05:26,15.08832984,0.0001684,53.2164,283.8248,54.3024,305.8125,0.00014071,1.952e-05,0.0,0 STARLINK-3149,1 49423U 21104R   22234.42044063  .00001952  00000-0  14071-3 0  9999,2 49423  53.2164 283.8248 0001684  54.3024 305.8125 15.08832984 43084,6917.901999999999,95.438,540.932,538.602,0.0
49423.0,STARLINK-3149,PAYLOAD,2022-08-23 01:59:17,15.08842057,0.0001710999999999,53.2162,280.8512,52.9464,307.1684,9.7498e-05,1.264e-05,0.0,0 STARLINK-3149,1 49423U 21104R   22235.08283759  .00001264  00000-0  97498-4 0  9990,2 49423  53.2162 280.8512 0001711  52.9464 307.1684 15.08842057 44264,6917.874,95.437,540.923,538.555,0.0
49423.0,STARLINK-3149,PAYLOAD,2022-08-23 09:56:12,15.08843378,0.0001729,53.2162,279.3643,53.5217,306.5935,0.00010011,1.306e-05,0.0,0 STARLINK-3149,1 49423U 21104R   22235.41403609  .00001306  00000-0  10011-3 0  9997,2 49423  53.2162 279.3643 0001729  53.5217 306.5935 15.08843378 43239,6917.87,95.437,540.931,538.539,0.0
49423.0,STARLINK-3149,PAYLOAD,2022-08-23 19:28:32,15.08828273,0.0001781,53.2165,277.58,55.3057,304.8102,-3.5686e-05,-8.56e-06,0.0,0 STARLINK-3149,1 49423U 21104R   22235.81149097 -.00000856  00000-0 -35686-4 0  9996,2 49423  53.2165 277.5800 0001781  55.3057 304.8102 15.08828273 43297,6917.916,95.438,541.013,538.549,0.0
49423.0,STARLINK-3149,PAYLOAD,2022-08-24 03:25:28,15.08833773,0.0001813,53.216,276.0928,54.00899999999999,306.107,-2.8012e-05,-7.34e-06,0.0,0 STARLINK-3149,1 49423U 21104R   22236.14268889 -.00000734  00000-0 -28012-4 0  9994,2 49423  53.2160 276.0928 0001813  54.0090 306.1070 15.08833773 44422,6917.899,95.438,541.019,538.51,0.0
49423.0,STARLINK-3149,PAYLOAD,2022-08-24 08:11:37,15.08834523,0.0001814,53.2163,275.2008,55.3764,304.7399,-2.2024e-05,-6.39e-06,0.0,0 STARLINK-3149,1 49423U 21104R   22236.34140848 -.00000639  00000-0 -22024-4 0  9991,2 49423  53.2163 275.2008 0001814  55.3764 304.7399 15.08834523 43373,6917.897,95.438,541.0169999999998,538.507,0.0
49423.0,STARLINK-3149,PAYLOAD,2022-08-24 09:47:00,15.08833903,0.0001805,53.2161,274.9035,53.4323,306.6835,-2.7802e-05,-7.299999999999999e-06,0.0,0 STARLINK-3149,1 49423U 21104R   22236.40764923 -.00000730  00000-0 -27802-4 0  9995,2 49423  53.2161 274.9035 0001805  53.4323 306.6835 15.08833903 43385,6917.899,95.438,541.013,538.515,0.0
49423.0,STARLINK-3149,PAYLOAD,2022-08-25 09:37:47,15.08836591,0.0001838,53.2162,270.4425,62.5916,297.5263,-6.8923e-06,-3.98e-06,0.0,0 STARLINK-3149,1 49423U 21104R   22237.40124909 -.00000398  00000-0 -68923-5 0  9990,2 49423  53.2162 270.4425 0001838  62.5916 297.5263 15.08836591 43531,6917.891,95.438,541.0269999999998,538.484,0.0
49423.0,STARLINK-3149,PAYLOAD,2022-08-25 19:10:06,15.08832607,0.0001963,53.2161,268.6581,54.5411,305.5764,7.3953e-05,8.89e-06,0.0,0 STARLINK-3149,1 49423U 21104R   22237.79869060  .00000889  00000-0  73953-4 0  9997,2 49423  53.2161 268.6581 0001963  54.5411 305.5764 15.08832607 43598,6917.903,95.438,541.126,538.41,0.0
49423.0,STARLINK-3149,PAYLOAD,2022-08-26 09:28:35,15.08837312,0.0002,53.2162,265.9817,54.6919,305.426,7.773800000000001e-05,9.49e-06,0.0,0 STARLINK-3149,1 49423U 21104R   22238.39484982  .00000949  00000-0  77738-4 0  9992,2 49423  53.2162 265.9817 0002000  54.6919 305.4260 15.08837312 43686,6917.889,95.438,541.137,538.37,0.0
49423.0,STARLINK-3149,PAYLOAD,2022-08-26 19:00:53,15.08838207,0.0001976,53.2161,264.1976,55.8872,304.2307,7.2286e-05,8.62e-06,0.0,0 STARLINK-3149,1 49423U 21104R   22238.79229013  .00000862  00000-0  72286-4 0  9995,2 49423  53.2161 264.1976 0001976  55.8872 304.2307 15.08838207 44824,6917.886,95.438,541.118,538.384,0.0
49423.0,STARLINK-3149,PAYLOAD,2022-08-27 09:19:21,15.08842927,0.000198,53.216,261.5212,56.6685,303.4496,8.2559e-05,1.026e-05,0.0,0 STARLINK-3149,1 49423U 21104R   22239.38844707  .00001026  00000-0  82559-4 0  9991,2 49423  53.2160 261.5212 0001980  56.6685 303.4496 15.08842927 43837,6917.871,95.437,541.106,538.367,0.0
49423.0,STARLINK-3149,PAYLOAD,2022-08-27 18:51:40,15.08845616,0.0001995,53.2161,259.7371,57.0706,303.0478,8.325200000000001e-05,1.037e-05,0.0,0 STARLINK-3149,1 49423U 21104R   22239.78588467  .00001037  00000-0  83252-4 0  9996,2 49423  53.2161 259.7371 0001995  57.0706 303.0478 15.08845616 43898,6917.863,95.437,541.1080000000002,538.3480000000002,0.0
49423.0,STARLINK-3149,PAYLOAD,2022-08-28 01:13:12,15.08846853,0.0001996999999999,53.216,258.5475,57.2808,302.8377,9.2136e-05,1.179e-05,0.0,0 STARLINK-3149,1 49423U 21104R   22240.05084273  .00001179  00000-0  92136-4 0  9992,2 49423  53.2160 258.5475 0001997  57.2808 302.8377 15.08846853 45011,6917.859,95.437,541.106,538.3430000000002,0.0
49423.0,STARLINK-3149,PAYLOAD,2022-08-28 07:34:45,15.08850083,0.0002012,53.2161,257.358,57.9546,302.1641,9.7529e-05,1.265e-05,0.0,0 STARLINK-3149,1 49423U 21104R   22240.31579962  .00001265  00000-0  97529-4 0  9992,2 49423  53.2161 257.3580 0002012  57.9546 302.1641 15.08850083 43971,6917.85,95.437,541.106,538.323,0.0
49423.0,STARLINK-3149,PAYLOAD,2022-08-29 04:14:45,15.08847271,0.0002054,53.2159,253.4923,58.6398,301.4795,4.5781e-05,4.41e-06,0.0,0 STARLINK-3149,1 49423U 21104R   22241.17691851  .00000441  00000-0  45781-4 0  9997,2 49423  53.2159 253.4923 0002054  58.6398 301.4795 15.08847271 45187,6917.858,95.437,541.144,538.302,0.0
49423.0,STARLINK-3149,PAYLOAD,2022-08-29 07:25:32,15.08841335,0.0002061,53.2161,252.8977,58.1007,302.0185,-4.7289e-06,-3.64e-06,0.0,0 STARLINK-3149,1 49423U 21104R   22241.30940320 -.00000364  00000-0 -47289-5 0  9992,2 49423  53.2161 252.8977 0002061  58.1007 302.0185 15.08841335 44120,6917.876,95.437,541.1669999999998,538.316,0.0
49423.0,STARLINK-3149,PAYLOAD,2022-08-30 07:16:19,15.08845574,0.0002015,53.2155,248.4364,55.7672,304.351,-2.1684e-05,-6.33e-06,0.0,0 STARLINK-3149,1 49423U 21104R   22242.30299835 -.00000633  00000-0 -21684-4 0  9990,2 49423  53.2155 248.4364 0002015  55.7672 304.3510 15.08845574 44276,6917.863,95.437,541.122,538.3340000000002,0.0
49423.0,STARLINK-3149,PAYLOAD,2022-08-31 07:07:07,15.08827147,0.0002065999999999,53.2161,243.9775,56.6323,303.4867,-2.27e-05,-6.49e-06,0.0,0 STARLINK-3149,1 49423U 21104R   22243.29661032 -.00000649  00000-0 -22700-4 0  9998,2 49423  53.2161 243.9775 0002066  56.6323 303.4867 15.08827147 44426,6917.92,95.438,541.214,538.355,0.0
49423.0,STARLINK-3149,PAYLOAD,2022-09-01 06:57:54,15.08833003,0.0002068,53.2161,239.5171,58.1359,301.9834,-6.9153e-06,-3.98e-06,0.0,0 STARLINK-3149,1 49423U 21104R   22244.29021216 -.00000398  00000-0 -69153-5 0  9998,2 49423  53.2161 239.5171 0002068  58.1359 301.9834 15.08833003 44576,6917.901999999999,95.438,541.197,538.336,0.0
49423.0,STARLINK-3149,PAYLOAD,2022-09-02 06:48:41,15.08833573,0.0002076,53.2158,235.0562,58.1999,301.9195,0.00011118,1.481e-05,0.0,0 STARLINK-3149,1 49423U 21104R   22245.28381319  .00001481  00000-0  11118-3 0  9999,2 49423  53.2158 235.0562 0002076  58.1999 301.9195 15.08833573 44725,6917.9,95.438,541.201,538.3290000000002,0.0
49423.0,STARLINK-3149,PAYLOAD,2022-09-03 05:04:04,15.08844041,0.0002121999999999,53.2159,230.8925,60.2482,299.8721,0.00012992,1.7800000000000002e-05,0.0,0 STARLINK-3149,1 49423U 21104R   22246.21116876  .00001780  00000-0  12992-3 0  9990,2 49423  53.2159 230.8925 0002122  60.2482 299.8721 15.08844041 45942,6917.868,95.437,541.201,538.265,0.0
49423.0,STARLINK-3149,PAYLOAD,2022-09-03 06:39:28,15.08844463,0.0002128,53.216,230.5952,60.3237,299.7967,0.00013281,1.826e-05,0.0,0 STARLINK-3149,1 49423U 21104R   22246.27740848  .00001826  00000-0  13281-3 0  9991,2 49423  53.2160 230.5952 0002128  60.3237 299.7967 15.08844463 44876,6917.8669999999975,95.437,541.2040000000002,538.26,0.0
49423.0,STARLINK-3149,PAYLOAD,2022-09-04 04:54:52,15.08839219,0.0002245,53.2165,226.4303,60.543,299.5786,2.0009e-05,3e-07,0.0,0 STARLINK-3149,1 49423U 21104R   22247.20477398  .00000030  00000-0  20009-4 0  9995,2 49423  53.2165 226.4303 0002245  60.5430 299.5786 15.08839219 46098,6917.8830000000025,95.438,541.3009999999998,538.195,0.0
49423.0,STARLINK-3149,PAYLOAD,2022-09-04 08:05:38,15.08839346,0.0002255999999999,53.2166,225.8355,60.5983,299.5234,1.9164e-05,1.7e-07,0.0,0 STARLINK-3149,1 49423U 21104R   22247.33725385  .00000017  00000-0  19164-4 0  9996,2 49423  53.2166 225.8355 0002256  60.5983 299.5234 15.08839346 45036,6917.882,95.438,541.308,538.187,0.0
49423.0,STARLINK-3149,PAYLOAD,2022-09-04 16:02:33,15.08845901,0.0002194,53.2166,224.3492,63.0661,297.0555,5.922e-05,6.54e-06,0.0,0 STARLINK-3149,1 49423U 21104R   22247.66844854  .00000654  00000-0  59220-4 0  9999,2 49423  53.2166 224.3492 0002194  63.0661 297.0555 15.08845901 45082,6917.861999999999,95.437,541.245,538.21,0.0
49423.0,STARLINK-3149,PAYLOAD,2022-09-05 04:45:37,15.08856957,0.0002149,53.2162,221.9701,62.2773,297.8437,0.00011873,1.603e-05,0.0,0 STARLINK-3149,1 49423U 21104R   22248.19835640  .00001603  00000-0  11873-3 0  9997,2 49423  53.2162 221.9701 0002149  62.2773 297.8437 15.08856957 46248,6917.829000000002,95.436,541.18,538.207,0.0
